ONEWEB-0414             
1 50491U 21132Y   25112.81478458  .00000039  00000+0  66694-4 0  9990
2 50491  87.9135  58.9887 0002236  76.8942 283.2440 13.18685873166228
ONEWEB-0417             
1 50492U 21132Z   25113.80908334  .00000054  00000+0  10538-3 0  9994
2 50492  87.9135  58.8168 0002123  85.7481 274.3894 13.18686555167629
ONEWEB-0418             
1 50493U 21132AA  25112.83203235  .00000041  00000+0  72442-4 0  9994
2 50493  87.9130  59.0023 0002290  89.8907 270.2487 13.18686821166269
ONEWEB-0419             
1 50494U 21132AB  25112.77367200  .00000050  00000+0  93243-4 0  9993
2 50494  87.9129  59.0192 0001990  96.3676 263.7683 13.18684412166176
ONEWEB-0420             
1 50495U 21132AC  25112.36110576  .00000077  00000+0  16325-3 0  9995
2 50495  87.9113  59.1130 0001881  76.8418 283.2923 13.18685691166117
ONEWEB-0421             
1 50496U 21132AD  25112.81003079  .00000103  00000+0  22737-3 0  9999
2 50496  87.9127  59.0123 0002269  76.6656 283.4729 13.18684610166214
ONEWEB-0424             
1 50497U 21132AE  25112.38956326  .00000080  00000+0  16891-3 0  9992
2 50497  87.9125  59.0867 0001750  99.3493 260.7837 13.18687001166184
ONEWEB-0426             
1 50498U 21132AF  25113.79327801  .00000019  00000+0  14347-4 0  9996
2 50498  87.9125  58.8116 0002865  80.7999 279.3457 13.18685716167605
